ASTRA 1N                
1 37775U 11041A   26032.88725214  .00000110  00000+0  00000+0 0  9996
2 37775   0.0616 344.1724 0002868  11.7676 114.7239  1.00272478 43174
SES-2                   
1 37809U 11049A   26032.90134986 -.00000206  00000+0  00000+0 0  9992
2 37809   0.0167  59.1955 0003040 251.7020  58.6603  1.00270967 52604
QUETZSAT 1              
1 37826U 11054A   26032.90325654 -.00000251  00000+0  00000+0 0  9991
2 37826   0.0126  19.8678 0003242 299.8838  60.4933  1.00271370 48518
SES-4                   
1 38087U 12007A   26032.91417660 -.00000179  00000+0  00000+0 0  9999
2 38087   0.0266  43.6783 0002324 278.9425 116.5776  1.00263834 50860
SES-5                   
1 38652U 12036A   26032.90947442  .00000024  00000+0  00000+0 0  9992
2 38652   0.0603 293.3832 0002288  13.7853 157.3003  1.00272947 43101
ASTRA 2F                
1 38778U 12051A   26032.92414331  .00000140  00000+0  00000+0 0  9995
2 38778   0.0750 258.3095 0003288   8.2431 226.4058  1.00272229 39787
SES-6                   
1 39172U 13026A   26032.91053657  .00000000  00000+0  00000+0 0  9991
2 39172   0.0160 325.7858 0002523 351.0092 102.6126  1.00267454 46367
O3B FM5                 
1 39188U 13031A   26032.71428275 -.00000025  00000+0  00000+0 0  9992
2 39188   0.0906  23.0753 0003446 283.4451  53.4404  5.00116407230267
O3B FM4                 
1 39189U 13031B   26032.83335488 -.00000026  00000+0  00000+0 0  9990
2 39189   0.0572 346.8195 0004957 339.7845  33.3571  5.00115035230272
O3B FM2                 
1 39190U 13031C   26032.89909183 -.00000026  00000+0  00000+0 0  9997
2 39190   0.0598 341.1989 0002878 330.6647  48.1042  5.00115949230339
O3B PFM                 
1 39191U 13031D   26031.71385640 -.00000024  00000+0  00000+0 0  9992
2 39191   0.0618  11.8457 0004547 321.1490  26.9745  5.00115965229846
ASTRA 2E                
1 39285U 13056A   26032.92422998  .00000140  00000+0  00000+0 0  9993
2 39285   0.0573  15.7933 0002210 290.1582 187.3647  1.00270403 45062
SES-8                   
1 39460U 13071A   26032.93740339  .00000000  00000+0  00000+0 0  9993
2 39460   0.0117 256.5795 0001350  87.7430 220.3068  1.00269729 43082
ASTRA 5B                
1 39617U 14011B   26032.88725214  .00000127  00000+0  00000+0 0  9991
2 39617   0.0752 299.5311 0004870   5.6912 169.7438  1.00269065 43312
O3B FM3                 
1 40079U 14038A   26032.58002492 -.00000025  00000+0  00000+0 0  9995
2 40079   0.0527 354.0726 0000309 285.8816  80.0348  5.00115527206268
O3B FM7                 
1 40080U 14038B   26031.32676464 -.00000024  00000+0  00000+0 0  9993
2 40080   0.0595 351.2386 0004560 315.8614  52.8514  5.00115552211030
O3B FM6                 
1 40081U 14038C   26032.75301391 -.00000025  00000+0  00000+0 0  9997
2 40081   0.0551 352.3844 0002712 318.0134  49.5710  5.00115642211045
